CCSDS_OMM_VERS = 2.0
CREATION_DATE  = 
ORIGINATOR     = 

OBJECT_NAME    = UNKNOWN
OBJECT_ID      = 
CENTER_NAME    = EARTH
REF_FRAME      = TEME
TIME_SYSTEM    = UTC
MEAN_ELEMENT_THEORY = SGP/SGP4

EPOCH          = 2026-01-28T04:16:14.403936
MEAN_MOTION    = 13.74515002
ECCENTRICITY   = .0029065
INCLINATION    = 82.9441
RA_OF_ASC_NODE = 199.7418
ARG_OF_PERICENTER = 233.0576
MEAN_ANOMALY   = 126.7918

EPHEMERIS_TYPE = 0
CLASSIFICATION_TYPE = U
NORAD_CAT_ID   = 87730
ELEMENT_SET_NO = 999
REV_AT_EPOCH   = 59171
BSTAR          = .12913E-3
MEAN_MOTION_DOT = .137E-5
MEAN_MOTION_DDOT = 0

CCSDS_OMM_VERS = 2.0
CREATION_DATE  = 
ORIGINATOR     = 

OBJECT_NAME    = UNKNOWN
OBJECT_ID      = 
CENTER_NAME    = EARTH
REF_FRAME      = TEME
TIME_SYSTEM    = UTC
MEAN_ELEMENT_THEORY = SGP/SGP4

EPOCH          = 2026-01-30T21:57:07.075872
MEAN_MOTION    = 13.72350447
ECCENTRICITY   = .013392
INCLINATION    = 99.3711
RA_OF_ASC_NODE = 266.6350
ARG_OF_PERICENTER = 61.6673
MEAN_ANOMALY   = 299.7908

EPHEMERIS_TYPE = 0
CLASSIFICATION_TYPE = U
NORAD_CAT_ID   = 87737
ELEMENT_SET_NO = 999
REV_AT_EPOCH   = 61060
BSTAR          = .10586E-3
MEAN_MOTION_DOT = .6E-6
MEAN_MOTION_DDOT = 0

CCSDS_OMM_VERS = 2.0
CREATION_DATE  = 
ORIGINATOR     = 

OBJECT_NAME    = UNKNOWN
OBJECT_ID      = 
CENTER_NAME    = EARTH
REF_FRAME      = TEME
TIME_SYSTEM    = UTC
MEAN_ELEMENT_THEORY = SGP/SGP4

EPOCH          = 2026-02-03T08:56:38.629248
MEAN_MOTION    = 14.35660465
ECCENTRICITY   = .0359299
INCLINATION    = 65.6734
RA_OF_ASC_NODE = 17.4883
ARG_OF_PERICENTER = 49.0093
MEAN_ANOMALY   = 95.4201

EPHEMERIS_TYPE = 0
CLASSIFICATION_TYPE = U
NORAD_CAT_ID   = 87764
ELEMENT_SET_NO = 999
REV_AT_EPOCH   = 62667
BSTAR          = .20856E-2
MEAN_MOTION_DOT = .12572E-3
MEAN_MOTION_DDOT = 0

CCSDS_OMM_VERS = 2.0
CREATION_DATE  = 
ORIGINATOR     = 

OBJECT_NAME    = UNKNOWN
OBJECT_ID      = 
CENTER_NAME    = EARTH
REF_FRAME      = TEME
TIME_SYSTEM    = UTC
MEAN_ELEMENT_THEORY = SGP/SGP4

EPOCH          = 2026-02-03T00:08:16.067328
MEAN_MOTION    = 13.19533342
ECCENTRICITY   = .0119475
INCLINATION    = 100.7425
RA_OF_ASC_NODE = 236.3071
ARG_OF_PERICENTER = 243.9037
MEAN_ANOMALY   = 114.9741

EPHEMERIS_TYPE = 0
CLASSIFICATION_TYPE = U
NORAD_CAT_ID   = 87771
ELEMENT_SET_NO = 999
REV_AT_EPOCH   = 54198
BSTAR          = .29951E-3
MEAN_MOTION_DOT = .76E-6
MEAN_MOTION_DDOT = 0

CCSDS_OMM_VERS = 2.0
CREATION_DATE  = 
ORIGINATOR     = 

OBJECT_NAME    = UNKNOWN
OBJECT_ID      = 
CENTER_NAME    = EARTH
REF_FRAME      = TEME
TIME_SYSTEM    = UTC
MEAN_ELEMENT_THEORY = SGP/SGP4

EPOCH          = 2026-02-03T14:43:01.929792
MEAN_MOTION    = 13.00703342
ECCENTRICITY   = .0033131
INCLINATION    = 102.3538
RA_OF_ASC_NODE = 278.2183
ARG_OF_PERICENTER = 98.6761
MEAN_ANOMALY   = 261.8090

EPHEMERIS_TYPE = 0
CLASSIFICATION_TYPE = U
NORAD_CAT_ID   = 87782
ELEMENT_SET_NO = 999
REV_AT_EPOCH   = 57486
BSTAR          = .89078E-2
MEAN_MOTION_DOT = .2661E-4
MEAN_MOTION_DDOT = 0

CCSDS_OMM_VERS = 2.0
CREATION_DATE  = 
ORIGINATOR     = 

OBJECT_NAME    = UNKNOWN
OBJECT_ID      = 
CENTER_NAME    = EARTH
REF_FRAME      = TEME
TIME_SYSTEM    = UTC
MEAN_ELEMENT_THEORY = SGP/SGP4

EPOCH          = 2026-01-17T13:18:15.077088
MEAN_MOTION    = 13.16710998
ECCENTRICITY   = .0239483
INCLINATION    = 99.6612
RA_OF_ASC_NODE = 133.6907
ARG_OF_PERICENTER = 279.1280
MEAN_ANOMALY   = 78.2814

EPHEMERIS_TYPE = 0
CLASSIFICATION_TYPE = U
NORAD_CAT_ID   = 87843
ELEMENT_SET_NO = 999
REV_AT_EPOCH   = 56887
BSTAR          = .50445E-2
MEAN_MOTION_DOT = .2198E-4
MEAN_MOTION_DDOT = 0

CCSDS_OMM_VERS = 2.0
CREATION_DATE  = 
ORIGINATOR     = 

OBJECT_NAME    = UNKNOWN
OBJECT_ID      = 
CENTER_NAME    = EARTH
REF_FRAME      = TEME
TIME_SYSTEM    = UTC
MEAN_ELEMENT_THEORY = SGP/SGP4

EPOCH          = 2026-02-03T07:33:15.680448
MEAN_MOTION    = 12.89087382
ECCENTRICITY   = .0577116
INCLINATION    = 98.8658
RA_OF_ASC_NODE = 346.5160
ARG_OF_PERICENTER = 132.4472
MEAN_ANOMALY   = 232.6943

EPHEMERIS_TYPE = 0
CLASSIFICATION_TYPE = U
NORAD_CAT_ID   = 87845
ELEMENT_SET_NO = 999
REV_AT_EPOCH   = 57198
BSTAR          = .39715E-2
MEAN_MOTION_DOT = .2115E-4
MEAN_MOTION_DDOT = 0

CCSDS_OMM_VERS = 2.0
CREATION_DATE  = 
ORIGINATOR     = 

OBJECT_NAME    = UNKNOWN
OBJECT_ID      = 
CENTER_NAME    = EARTH
REF_FRAME      = TEME
TIME_SYSTEM    = UTC
MEAN_ELEMENT_THEORY = SGP/SGP4

EPOCH          = 2026-01-28T02:12:36.093024
MEAN_MOTION    = 14.41181187
ECCENTRICITY   = .0036
INCLINATION    = 99.1569
RA_OF_ASC_NODE = 155.8496
ARG_OF_PERICENTER = 131.2496
MEAN_ANOMALY   = 229.1801

EPHEMERIS_TYPE = 0
CLASSIFICATION_TYPE = U
NORAD_CAT_ID   = 87878
ELEMENT_SET_NO = 999
REV_AT_EPOCH   = 61797
BSTAR          = .19573E-2
MEAN_MOTION_DOT = .6319E-4
MEAN_MOTION_DDOT = 0

CCSDS_OMM_VERS = 2.0
CREATION_DATE  = 
ORIGINATOR     = 

OBJECT_NAME    = UNKNOWN
OBJECT_ID      = 
CENTER_NAME    = EARTH
REF_FRAME      = TEME
TIME_SYSTEM    = UTC
MEAN_ELEMENT_THEORY = SGP/SGP4

EPOCH          = 2026-02-01T17:47:31.216992
MEAN_MOTION    = 14.06021922
ECCENTRICITY   = .0152936
INCLINATION    = 98.7323
RA_OF_ASC_NODE = 139.8003
ARG_OF_PERICENTER = 284.7818
MEAN_ANOMALY   = 73.6449

EPHEMERIS_TYPE = 0
CLASSIFICATION_TYPE = U
NORAD_CAT_ID   = 87884
ELEMENT_SET_NO = 999
REV_AT_EPOCH   = 62553
BSTAR          = .14204E-3
MEAN_MOTION_DOT = .215E-5
MEAN_MOTION_DDOT = 0

CCSDS_OMM_VERS = 2.0
CREATION_DATE  = 
ORIGINATOR     = 

OBJECT_NAME    = UNKNOWN
OBJECT_ID      = 
CENTER_NAME    = EARTH
REF_FRAME      = TEME
TIME_SYSTEM    = UTC
MEAN_ELEMENT_THEORY = SGP/SGP4

EPOCH          = 2026-02-03T08:07:46.850016
MEAN_MOTION    = 12.35439270
ECCENTRICITY   = .0889951
INCLINATION    = 28.6329
RA_OF_ASC_NODE = 39.1551
ARG_OF_PERICENTER = 37.7662
MEAN_ANOMALY   = 328.2076

EPHEMERIS_TYPE = 0
CLASSIFICATION_TYPE = U
NORAD_CAT_ID   = 87991
ELEMENT_SET_NO = 999
REV_AT_EPOCH   = 52950
BSTAR          = .83424E-2
MEAN_MOTION_DOT = .4214E-4
MEAN_MOTION_DDOT = 0

CCSDS_OMM_VERS = 2.0
CREATION_DATE  = 
ORIGINATOR     = 

OBJECT_NAME    = UNKNOWN
OBJECT_ID      = 
CENTER_NAME    = EARTH
REF_FRAME      = TEME
TIME_SYSTEM    = UTC
MEAN_ELEMENT_THEORY = SGP/SGP4

EPOCH          = 2026-02-03T11:33:17.041536
MEAN_MOTION    = 14.45960358
ECCENTRICITY   = .0189908
INCLINATION    = 97.8393
RA_OF_ASC_NODE = 224.6847
ARG_OF_PERICENTER = 229.0810
MEAN_ANOMALY   = 129.3807

EPHEMERIS_TYPE = 0
CLASSIFICATION_TYPE = U
NORAD_CAT_ID   = 89005
ELEMENT_SET_NO = 999
REV_AT_EPOCH   = 54171
BSTAR          = .1062E-2
MEAN_MOTION_DOT = .4682E-4
MEAN_MOTION_DDOT = 0

CCSDS_OMM_VERS = 2.0
CREATION_DATE  = 
ORIGINATOR     = 

OBJECT_NAME    = UNKNOWN
OBJECT_ID      = 
CENTER_NAME    = EARTH
REF_FRAME      = TEME
TIME_SYSTEM    = UTC
MEAN_ELEMENT_THEORY = SGP/SGP4

EPOCH          = 2026-01-25T11:36:16.514208
MEAN_MOTION    = 14.95055692
ECCENTRICITY   = .002217
INCLINATION    = 98.0483
RA_OF_ASC_NODE = 290.8535
ARG_OF_PERICENTER = 175.3860
MEAN_ANOMALY   = 184.7569

EPHEMERIS_TYPE = 0
CLASSIFICATION_TYPE = U
NORAD_CAT_ID   = 89029
ELEMENT_SET_NO = 999
REV_AT_EPOCH   = 65761
BSTAR          = .9872E-3
MEAN_MOTION_DOT = .10811E-3
MEAN_MOTION_DDOT = 0

