UNKNOWN                 
1 87730U          26028.17794449  .00000137  00000+0  12913-3 0  9997
2 87730  82.9441 199.7418 0029065 233.0576 126.7918 13.74515002591717
UNKNOWN                 
1 87737U          26030.91466523  .00000060  00000+0  10586-3 0  9997
2 87737  99.3711 266.6350 0133920  61.6673 299.7908 13.72350447610602
UNKNOWN                 
1 87764U          26034.37266932  .00012572  00000+0  20856-2 0  9994
2 87764  65.6734  17.4883 0359299  49.0093  95.4201 14.35660465626676
UNKNOWN                 
1 87771U          26034.00574152  .00000076  00000+0  29951-3 0  9990
2 87771 100.7425 236.3071 0119475 243.9037 114.9741 13.19533342541986
UNKNOWN                 
1 87782U          26034.61321678  .00002661  00000+0  89078-2 0  9999
2 87782 102.3538 278.2183 0033131  98.6761 261.8090 13.00703342574864
UNKNOWN                 
1 87843U          26017.55434117  .00002198  00000+0  50445-2 0  9995
2 87843  99.6612 133.6907 0239483 279.1280  78.2814 13.16710998568871
UNKNOWN                 
1 87845U          26034.31476482  .00002115  00000+0  39715-2 0  9997
2 87845  98.8658 346.5160 0577116 132.4472 232.6943 12.89087382571980
UNKNOWN                 
1 87878U          26028.09208441  .00006319  00000+0  19573-2 0  9999
2 87878  99.1569 155.8496 0036000 131.2496 229.1801 14.41181187617971
UNKNOWN                 
1 87884U          26032.74133353  .00000215  00000+0  14204-3 0  9998
2 87884  98.7323 139.8003 0152936 284.7818  73.6449 14.06021922625538
UNKNOWN                 
1 87991U          26034.33873669  .00004214  00000+0  83424-2 0  9997
2 87991  28.6329  39.1551 0889951  37.7662 328.2076 12.35439270529506
UNKNOWN                 
1 89005U          26034.48144724  .00004682  00000+0  10620-2 0  9991
2 89005  97.8393 224.6847 0189908 229.0810 129.3807 14.45960358541716
UNKNOWN                 
1 89029U          26025.48352447  .00010811  00000+0  98720-3 0  9999
2 89029  98.0483 290.8535 0022170 175.3860 184.7569 14.95055692657617
